NORAD_CAT_ID,OBJECT_NAME,OBJECT_TYPE,EPOCH,MEAN_MOTION,ECCENTRICITY,INCLINATION,RA_OF_ASC_NODE,ARG_OF_PERICENTER,MEAN_ANOMALY,BSTAR,MEAN_MOTION_DOT,MEAN_MOTION_DDOT,TLE_LINE0,TLE_LINE1,TLE_LINE2,SEMIMAJOR_AXIS,PERIOD,APOGEE,PERIGEE,DECAYED
54209.0,STARLINK-5259,PAYLOAD,2024-03-09 06:23:47,15.08843238,0.0001385,53.219,22.7729,94.9187,265.1963,4.3702e-05,4.08e-06,0.0,0 STARLINK-5259,1 54209U 22141BE  24069.26651990  .00000408  00000-0  43702-4 0  9991,2 54209  53.2190  22.7729 0001385  94.9187 265.1963 15.08843238 76104,6917.87,95.437,540.694,538.777,0.0
54209.0,STARLINK-5259,PAYLOAD,2024-03-09 14:20:42,15.08850265,0.0001433,53.2198,21.2908,87.1364,272.9792,8.8171e-05,1.116e-05,0.0,0 STARLINK-5259,1 54209U 22141BE  24069.59771340  .00001116  00000-0  88171-4 0  9995,2 54209  53.2198  21.2908 0001433  87.1364 272.9792 15.08850265 75923,6917.849,95.437,540.705,538.723,0.0
54209.0,STARLINK-5259,PAYLOAD,2024-03-10 03:03:48,15.08832789,0.0001277,53.2219,18.91,100.2128,259.9009,0.00012664,1.728e-05,0.0,0 STARLINK-5259,1 54209U 22141BE  24070.12764332  .00001728  00000-0  12664-3 0  9991,2 54209  53.2219  18.9100 0001277 100.2128 259.9009 15.08832789 76237,6917.902,95.438,540.651,538.884,0.0
54209.0,STARLINK-5259,PAYLOAD,2024-03-10 06:14:35,15.08829841,0.0001539,53.2198,18.3157,91.6729,268.4439,-9.1253e-05,-1.74e-05,0.0,0 STARLINK-5259,1 54209U 22141BE  24070.26013202 -.00001740  00000-0 -91253-4 0  9997,2 54209  53.2198  18.3157 0001539  91.6729 268.4439 15.08829841 76259,6917.911,95.438,540.841,538.712,0.0
54209.0,STARLINK-5259,PAYLOAD,2024-03-11 02:54:35,15.08839291,0.0001336,53.2185,14.4499,93.114,267.0005,0.00015261,2.142e-05,0.0,0 STARLINK-5259,1 54209U 22141BE  24071.12124111  .00002142  00000-0  15261-3 0  9994,2 54209  53.2185  14.4499 0001336  93.1140 267.0005 15.08839291 76388,6917.883,95.438,540.672,538.823,0.0
54209.0,STARLINK-5259,PAYLOAD,2024-03-11 06:05:21,15.08850351,0.0001527,53.2192,13.8568,91.9733,268.1434,0.00012277,1.667e-05,0.0,0 STARLINK-5259,1 54209U 22141BE  24071.25371610  .00001667  00000-0  12277-3 0  9991,2 54209  53.2192  13.8568 0001527  91.9733 268.1434 15.08850351 76403,6917.849,95.437,540.77,538.657,0.0
54209.0,STARLINK-5259,PAYLOAD,2024-03-11 20:23:49,15.08839661,0.0001406,53.2175,11.1779,99.7988,260.3163,0.0001623,2.296e-05,0.0,0 STARLINK-5259,1 54209U 22141BE  24071.84988325  .00002296  00000-0  16230-3 0  9995,2 54209  53.2175  11.1779 0001406  99.7988 260.3163 15.08839661 76496,6917.881,95.438,540.719,538.774,0.0
54209.0,STARLINK-5259,PAYLOAD,2024-03-12 01:09:59,15.08834352,0.0001344,53.2181,10.2859,102.0006,258.1137,7.0851e-05,8.4e-06,0.0,0 STARLINK-5259,1 54209U 22141BE  24072.04860576  .00000840  00000-0  70851-4 0  9998,2 54209  53.2181  10.2859 0001344 102.0006 258.1137 15.08834352 76524,6917.898,95.438,540.692,538.833,0.0
54209.0,STARLINK-5259,PAYLOAD,2024-03-12 20:14:36,15.08838942,0.0001508,53.2189,6.7204,105.3547,254.7612,0.00012831,1.755e-05,0.0,0 STARLINK-5259,1 54209U 22141BE  24072.84348275  .00001755  00000-0  12831-3 0  9992,2 54209  53.2189   6.7204 0001508 105.3547 254.7612 15.08838942 76411,6917.884,95.438,540.792,538.705,0.0
54209.0,STARLINK-5259,PAYLOAD,2024-03-13 04:11:31,15.08853699,0.0001484,53.2189,5.2346,97.5985,262.5176,0.00010079,1.317e-05,0.0,0 STARLINK-5259,1 54209U 22141BE  24073.17467433  .00001317  00000-0  10079-3 0  9993,2 54209  53.2189   5.2346 0001484  97.5985 262.5176 15.08853699 76691,6917.839,95.437,540.73,538.677,0.0
54209.0,STARLINK-5259,PAYLOAD,2024-03-13 12:08:26,15.08863521,0.0001474,53.2189,3.7474,97.0084,263.1075,0.00017264,2.462e-05,0.0,0 STARLINK-5259,1 54209U 22141BE  24073.50586404  .00002462  00000-0  17264-3 0  9995,2 54209  53.2189   3.7474 0001474  97.0084 263.1075 15.08863521 76746,6917.808,95.436,540.693,538.654,0.0
54209.0,STARLINK-5259,PAYLOAD,2024-03-13 20:05:24,15.08830793,0.000169,53.2184,2.2604,90.5666,269.552,-6.8787e-05,-1.382e-05,0.0,0 STARLINK-5259,1 54209U 22141BE  24073.83708354 -.00001382  00000-0 -68787-4 0  9990,2 54209  53.2184   2.2604 0001690  90.5666 269.5520 15.08830793 76799,6917.909,95.438,540.943,538.604,0.0
54209.0,STARLINK-5259,PAYLOAD,2024-03-14 04:02:19,15.0884001,0.0001578,53.2185,0.7742,90.2785,269.8388,8.2558e-05,1.026e-05,0.0,0 STARLINK-5259,1 54209U 22141BE  24074.16828066  .00001026  00000-0  82558-4 0  9995,2 54209  53.2185   0.7742 0001578  90.2785 269.8388 15.08840010 76844,6917.88,95.438,540.837,538.654,0.0
54209.0,STARLINK-5259,PAYLOAD,2024-03-15 03:53:07,15.08824344,0.000133,53.2177,356.3122,87.586,272.5284,-0.00020684,-3.577e-05,0.0,0 STARLINK-5259,1 54209U 22141BE  24075.16189079 -.00003577  00000-0 -20684-3 0  9996,2 54209  53.2177 356.3122 0001330  87.5860 272.5284 15.08824344 76990,6917.928,95.439,540.713,538.873,0.0
54209.0,STARLINK-5259,PAYLOAD,2024-03-15 22:57:45,15.08830978,0.0001145,53.2168,352.745,101.9172,258.1949,0.00019208,2.77e-05,0.0,0 STARLINK-5259,1 54209U 22141BE  24075.95677231  .00002770  00000-0  19208-3 0  9997,2 54209  53.2168 352.7450 0001145 101.9172 258.1949 15.08830978 76881,6917.908,95.438,540.565,538.981,0.0
54209.0,STARLINK-5259,PAYLOAD,2024-03-16 02:08:31,15.08842323,0.0001447,53.2182,352.1496,82.6157,277.4999,0.00027672,4.119e-05,0.0,0 STARLINK-5259,1 54209U 22141BE  24076.08924926  .00004119  00000-0  27672-3 0  9991,2 54209  53.2182 352.1496 0001447  82.6157 277.4999 15.08842323 77139,6917.873,95.437,540.739,538.737,0.0
54209.0,STARLINK-5259,PAYLOAD,2024-03-16 22:48:32,15.08845603,0.0001848,53.2178,348.2904,63.1243,296.9938,0.00061196,9.466e-05,0.0,0 STARLINK-5259,1 54209U 22141BE  24076.95037373  .00009466  00000-0  61196-3 0  9997,2 54209  53.2178 348.2904 0001848  63.1243 296.9938 15.08845603 77031,6917.863,95.437,541.007,538.45,0.0
54209.0,STARLINK-5259,PAYLOAD,2024-03-17 03:34:41,15.08854551,0.0001472,53.2177,347.3942,82.5692,277.5467,0.00047019,7.206e-05,0.0,0 STARLINK-5259,1 54209U 22141BE  24077.14908763  .00007206  00000-0  47019-3 0  9997,2 54209  53.2177 347.3942 0001472  82.5692 277.5467 15.08854551 77290,6917.836,95.437,540.719,538.683,0.0
54209.0,STARLINK-5259,PAYLOAD,2024-03-17 21:03:55,15.08845212,0.0001486,53.2177,344.1174,89.9074,270.2089,4.039e-05,3.55e-06,0.0,0 STARLINK-5259,1 54209U 22141BE  24077.87772541  .00000355  00000-0  40390-4 0  9994,2 54209  53.2177 344.1174 0001486  89.9074 270.2089 15.08845212 77409,6917.864,95.437,540.757,538.701,0.0
54209.0,STARLINK-5259,PAYLOAD,2024-03-17 22:39:18,15.08845427,0.0001382,53.2171,343.8195,102.1932,257.9215,1.6866e-05,-1.9e-07,0.0,0 STARLINK-5259,1 54209U 22141BE  24077.94396501 -.00000019  00000-0  16866-4 0  9999,2 54209  53.2171 343.8195 0001382 102.1932 257.9215 15.08845427 77184,6917.864,95.437,540.685,538.773,0.0
54209.0,STARLINK-5259,PAYLOAD,2024-03-18 03:25:28,15.08845015,0.0001402,53.2176,342.9288,99.2911,260.824,-2.1954e-06,-3.23e-06,0.0,0 STARLINK-5259,1 54209U 22141BE  24078.14268533 -.00000323  00000-0 -21954-5 0  9999,2 54209  53.2176 342.9288 0001402  99.2911 260.8240 15.08845015 77216,6917.865,95.437,540.7,538.76,0.0
54209.0,STARLINK-5259,PAYLOAD,2024-03-18 22:30:05,15.08841707,0.0001545,53.2184,339.3595,117.3194,242.7956,4.6438e-05,4.51e-06,0.0,0 STARLINK-5259,1 54209U 22141BE  24078.93756505  .00000451  00000-0  46438-4 0  9990,2 54209  53.2184 339.3595 0001545 117.3194 242.7956 15.08841707 77339,6917.875,95.437,540.809,538.671,0.0
54209.0,STARLINK-5259,PAYLOAD,2024-03-19 03:16:14,15.08842977,0.0001469,53.2182,338.4674,114.1055,246.0091,4.9065e-05,4.93e-06,0.0,0 STARLINK-5259,1 54209U 22141BE  24079.13628443  .00000493  00000-0  49065-4 0  9997,2 54209  53.2182 338.4674 0001469 114.1055 246.0091 15.08842977 77596,6917.871,95.437,540.753,538.72,0.0
54209.0,STARLINK-5259,PAYLOAD,2024-03-20 03:07:01,15.08850284,0.0001286,53.2176,334.0084,102.0279,258.0858,0.00014805,2.07e-05,0.0,0 STARLINK-5259,1 54209U 22141BE  24080.12987519  .00002070  00000-0  14805-3 0  9996,2 54209  53.2176 334.0084 0001286 102.0279 258.0858 15.08850284 77748,6917.849,95.437,540.604,538.824,0.0
54209.0,STARLINK-5259,PAYLOAD,2024-03-20 20:36:16,15.08838111,0.0001406,53.2175,330.7324,119.9568,240.1564,4.6994e-05,4.6e-06,0.0,0 STARLINK-5259,1 54209U 22141BE  24080.85852607  .00000460  00000-0  46994-4 0  9991,2 54209  53.2175 330.7324 0001406 119.9568 240.1564 15.08838111 77852,6917.886,95.438,540.724,538.779,0.0
54209.0,STARLINK-5259,PAYLOAD,2024-03-20 22:11:39,15.0883466,0.0001207,53.2172,330.4351,108.499,251.6133,-6.2672e-05,-1.285e-05,0.0,0 STARLINK-5259,1 54209U 22141BE  24080.92476429 -.00001285  00000-0 -62672-4 0  9992,2 54209  53.2172 330.4351 0001207 108.4990 251.6133 15.08834660 77637,6917.897,95.438,540.597,538.927,0.0
54209.0,STARLINK-5259,PAYLOAD,2024-03-21 09:19:21,15.08835795,0.0001127,53.2171,328.3588,85.8381,274.274,-0.00010652,-1.982e-05,0.0,0 STARLINK-5259,1 54209U 22141BE  24081.38844619 -.00001982  00000-0 -10652-3 0  9997,2 54209  53.2171 328.3588 0001127  85.8381 274.2740 15.08835795 77700,6917.893,95.438,540.538,538.979,0.0
54209.0,STARLINK-5259,PAYLOAD,2024-03-21 22:02:27,15.08835745,0.0001235,53.2169,325.9809,95.4792,264.6341,-1.4146e-05,-5.13e-06,0.0,0 STARLINK-5259,1 54209U 22141BE  24081.91836871 -.00000513  00000-0 -14146-4 0  9999,2 54209  53.2169 325.9809 0001235  95.4792 264.6341 15.08835745 77782,6917.893,95.438,540.613,538.904,0.0
54209.0,STARLINK-5259,PAYLOAD,2024-03-22 01:13:12,15.08850072,0.0001289,53.2165,325.3855,120.4301,239.6819,0.00018358,2.636e-05,0.0,0 STARLINK-5259,1 54209U 22141BE  24082.05083932  .00002636  00000-0  18358-3 0  9991,2 54209  53.2165 325.3855 0001289 120.4301 239.6819 15.08850072 78038,6917.85,95.437,540.606,538.823,0.0
54209.0,STARLINK-5259,PAYLOAD,2024-03-22 20:17:51,15.08832202,0.0001484,53.2183,321.8175,116.1361,243.9784,0.00023386,3.435e-05,0.0,0 STARLINK-5259,1 54209U 22141BE  24082.84573182  .00003435  00000-0  23386-3 0  9994,2 54209  53.2183 321.8175 0001484 116.1361 243.9784 15.08832202 78156,6917.904,95.438,540.796,538.743,0.0
